ONEWEB-0656             
1 55817U 23029X   25012.60342975 -.00000084  00000+0 -23838-3 0  9998
2 55817  87.9249  17.9878 0002310  78.8293 281.3100 13.20772497 92435
ONEWEB-0657             
1 55818U 23029Y   25012.81814299  .00000094  00000+0  20122-3 0  9997
2 55818  87.9154  48.4432 0002706  94.9001 265.2441 13.19726601 90274
ONEWEB-0658             
1 55819U 23029Z   25013.04085015  .00001318  00000+0  32591-2 0  9992
2 55819  87.9151  48.3335 0001776 111.6296 248.5026 13.19721066 90994
ONEWEB-0660             
1 55820U 23029AA  25013.01383483  .00000011  00000+0 -40967-5 0  9990
2 55820  87.8988  33.1113 0001543  94.4638 265.6668 13.14502159 91773
ONEWEB-0661             
1 55821U 23029AB  25012.59203694  .00001005  00000+0  26749-2 0  9990
2 55821  87.8991  33.2646 0001371  94.7441 265.3845 13.14500845 91688
ONEWEB-0662             
1 55822U 23029AC  25013.00747759 -.00000119  00000+0 -35470-3 0  9992
2 55822  87.8982  33.1900 0001464  98.2383 261.8913 13.14500894 91803
ONEWEB-0663             
1 55823U 23029AD  25012.51562788  .00000043  00000+0  72996-4 0  9994
2 55823  87.9248  18.0635 0001438  99.1643 260.9653 13.20820257 92411
ONEWEB-0664             
1 55824U 23029AE  25013.04533993  .00000078  00000+0  16087-3 0  9996
2 55824  87.9249  17.9753 0001586  75.0924 285.0385 13.20772148 93170
